OBJECT_NAME,OBJECT_ID,EPOCH,MEAN_MOTION,ECCENTRICITY,INCLINATION,RA_OF_ASC_NODE,ARG_OF_PERICENTER,MEAN_ANOMALY,EPHEMERIS_TYPE,CLASSIFICATION_TYPE,NORAD_CAT_ID,ELEMENT_SET_NO,REV_AT_EPOCH,BSTAR,MEAN_MOTION_DOT,MEAN_MOTION_DDOT
STARLINK-37803,2026-119Z,2026-06-09T14:00:04.000032,15.80831063,.00009551,97.2837,186.0302,109.0661,188.0867,0,U,69319,999,277,.80258909E-4,.15269E-3,0
GUOWANG TEST OBJECT A,2026-120A,2026-06-07T11:06:12.288672,15.38803685,.00095994,54.9967,71.5399,294.3963,65.6063,0,U,69320,999,119,.24095813E-3,.9002E-4,0
GUOWANG TEST OBJECT B,2026-120B,2026-06-04T06:41:24.658368,15.39121370,.00091004,55.0006,85.8667,296.4175,63.5919,0,U,69321,999,70,.6938966E-3,.27005E-3,0
GUOWANG TEST OBJECT C,2026-120C,2026-06-07T00:06:59.203296,15.39521743,.00095552,54.9981,73.5721,307.3825,52.6333,0,U,69322,999,112,.45417396E-3,.17755E-3,0
GUOWANG TEST OBJECT D,2026-120D,2026-06-04T15:59:40.712352,15.39704502,.00080029,55.0029,84.1123,301.7889,58.2360,0,U,69323,999,76,.80800046E-3,.32137E-3,0
QIANFAN-163,2026-121A,2026-06-07T22:57:09.243936,13.60351284,.00192,89.0167,301.4498,214.2671,145.7248,0,U,69325,999,90,.25988E-4,.32E-6,0
QIANFAN-164,2026-121B,2026-06-09T15:31:56.897184,13.60504863,.00187627,89.0161,301.2780,210.3788,149.6283,0,U,69326,999,113,.15052343E-3,.125E-5,0
SZ-22 MODULE,2025-272C,2026-06-08T23:33:34.310304,15.59890497,.00075139,41.4813,11.9816,18.7303,341.3811,0,U,69328,999,204,.24871542E-3,.20338E-3,0
DTC TEST OBJECT A,2026-128A,2026-06-09T14:05:03.022656,15.55697057,.00081394,54.9945,340.1377,256.5053,103.5075,0,U,69472,999,4,.12625073E-3,.8364E-4,0
